[{"OBJECT_NAME":"ZACUBE-1 (TSHEPISOSAT)","OBJECT_ID":"2013-066B","EPOCH":"2026-02-01T20:14:51.139680","MEAN_MOTION":14.99841331,"ECCENTRICITY":0.0041312,"INCLINATION":97.8153,"RA_OF_ASC_NODE":354.5016,"ARG_OF_PERICENTER":343.6684,"MEAN_ANOMALY":16.3205,"EPHEMERIS_TYPE":0,"CLASSIFICATION_TYPE":"U","NORAD_CAT_ID":39417,"ELEMENT_SET_NO":999,"REV_AT_EPOCH":66043,"BSTAR":0.00057178564,"MEAN_MOTION_DOT":7.148e-5,"MEAN_MOTION_DDOT":0},{"OBJECT_NAME":"WNISAT-1","OBJECT_ID":"2013-066H","EPOCH":"2026-02-01T22:32:31.009056","MEAN_MOTION":14.5775147,"ECCENTRICITY":0.01626421,"INCLINATION":97.6979,"RA_OF_ASC_NODE":191.8711,"ARG_OF_PERICENTER":298.1503,"MEAN_ANOMALY":60.3346,"EPHEMERIS_TYPE":0,"CLASSIFICATION_TYPE":"U","NORAD_CAT_ID":39423,"ELEMENT_SET_NO":999,"REV_AT_EPOCH":64702,"BSTAR":0.00018206333,"MEAN_MOTION_DOT":9.46e-6,"MEAN_MOTION_DDOT":0},{"OBJECT_NAME":"TRITON-1","OBJECT_ID":"2013-066M","EPOCH":"2026-02-01T23:59:27.848832","MEAN_MOTION":14.8094516,"ECCENTRICITY":0.00902978,"INCLINATION":97.8324,"RA_OF_ASC_NODE":305.9134,"ARG_OF_PERICENTER":315.6707,"MEAN_ANOMALY":43.7299,"EPHEMERIS_TYPE":0,"CLASSIFICATION_TYPE":"U","NORAD_CAT_ID":39427,"ELEMENT_SET_NO":999,"REV_AT_EPOCH":65407,"BSTAR":0.00053734371,"MEAN_MOTION_DOT":4.402e-5,"MEAN_MOTION_DDOT":0},{"OBJECT_NAME":"GOMX-1","OBJECT_ID":"2013-066Q","EPOCH":"2026-02-01T22:17:23.745984","MEAN_MOTION":14.68932309,"ECCENTRICITY":0.01302266,"INCLINATION":97.658,"RA_OF_ASC_NODE":241.8616,"ARG_OF_PERICENTER":151.3136,"MEAN_ANOMALY":209.5316,"EPHEMERIS_TYPE":0,"CLASSIFICATION_TYPE":"U","NORAD_CAT_ID":39430,"ELEMENT_SET_NO":999,"REV_AT_EPOCH":65005,"BSTAR":0.00045611419,"MEAN_MOTION_DOT":2.989e-5,"MEAN_MOTION_DDOT":0},{"OBJECT_NAME":"CUBEBUG-2 (LO-74)","OBJECT_ID":"2013-066AA","EPOCH":"2026-02-01T20:02:34.973664","MEAN_MOTION":14.92519958,"ECCENTRICITY":0.00604521,"INCLINATION":97.8769,"RA_OF_ASC_NODE":341.478,"ARG_OF_PERICENTER":115.1934,"MEAN_ANOMALY":245.557,"EPHEMERIS_TYPE":0,"CLASSIFICATION_TYPE":"U","NORAD_CAT_ID":39440,"ELEMENT_SET_NO":999,"REV_AT_EPOCH":65679,"BSTAR":0.00032837244,"MEAN_MOTION_DOT":3.433e-5,"MEAN_MOTION_DDOT":0},{"OBJECT_NAME":"NEE-02 KRYSAOR","OBJECT_ID":"2013-066AB","EPOCH":"2026-02-01T19:48:53.485056","MEAN_MOTION":14.85939088,"ECCENTRICITY":0.00676328,"INCLINATION":97.8785,"RA_OF_ASC_NODE":333.1649,"ARG_OF_PERICENTER":152.2442,"MEAN_ANOMALY":208.241,"EPHEMERIS_TYPE":0,"CLASSIFICATION_TYPE":"U","NORAD_CAT_ID":39441,"ELEMENT_SET_NO":999,"REV_AT_EPOCH":65609,"BSTAR":0.00023064902,"MEAN_MOTION_DOT":2.039e-5,"MEAN_MOTION_DDOT":0},{"OBJECT_NAME":"FUNCUBE-1 (AO-73)","OBJECT_ID":"2013-066AE","EPOCH":"2026-02-01T20:45:40.847904","MEAN_MOTION":15.07153424,"ECCENTRICITY":0.00365734,"INCLINATION":97.8123,"RA_OF_ASC_NODE":1.8306,"ARG_OF_PERICENTER":305.7942,"MEAN_ANOMALY":53.9887,"EPHEMERIS_TYPE":0,"CLASSIFICATION_TYPE":"U","NORAD_CAT_ID":39444,"ELEMENT_SET_NO":999,"REV_AT_EPOCH":65926,"BSTAR":0.00069195842,"MEAN_MOTION_DOT":0.00010504,"MEAN_MOTION_DDOT":0},{"OBJECT_NAME":"UWE-3","OBJECT_ID":"2013-066AG","EPOCH":"2026-02-01T19:27:06.847488","MEAN_MOTION":14.9569202,"ECCENTRICITY":0.00518187,"INCLINATION":97.8538,"RA_OF_ASC_NODE":348.2312,"ARG_OF_PERICENTER":52.2263,"MEAN_ANOMALY":308.3635,"EPHEMERIS_TYPE":0,"CLASSIFICATION_TYPE":"U","NORAD_CAT_ID":39446,"ELEMENT_SET_NO":999,"REV_AT_EPOCH":65733,"BSTAR":0.00048904478,"MEAN_MOTION_DOT":5.53e-5,"MEAN_MOTION_DDOT":0},{"OBJECT_NAME":"BRITE-CA1 (TORONTO)","OBJECT_ID":"2014-033L","EPOCH":"2026-02-01T22:50:35.167488","MEAN_MOTION":14.72364852,"ECCENTRICITY":0.00787732,"INCLINATION":97.9522,"RA_OF_ASC_NODE":164.572,"ARG_OF_PERICENTER":350.8439,"MEAN_ANOMALY":9.1327,"EPHEMERIS_TYPE":0,"CLASSIFICATION_TYPE":"U","NORAD_CAT_ID":40020,"ELEMENT_SET_NO":999,"REV_AT_EPOCH":62231,"BSTAR":0.00015151275,"MEAN_MOTION_DOT":9.53e-6,"MEAN_MOTION_DDOT":0},{"OBJECT_NAME":"DUCHIFAT-1","OBJECT_ID":"2014-033M","EPOCH":"2026-02-01T14:54:25.295904","MEAN_MOTION":15.4561722,"ECCENTRICITY":0.00056287,"INCLINATION":98.0704,"RA_OF_ASC_NODE":74.9143,"ARG_OF_PERICENTER":192.2939,"MEAN_ANOMALY":167.8172,"EPHEMERIS_TYPE":0,"CLASSIFICATION_TYPE":"U","NORAD_CAT_ID":40021,"ELEMENT_SET_NO":999,"REV_AT_EPOCH":63469,"BSTAR":0.00084517661,"MEAN_MOTION_DOT":0.00040775,"MEAN_MOTION_DDOT":0},{"OBJECT_NAME":"NANOSATC-BR1","OBJECT_ID":"2014-033Q","EPOCH":"2026-02-01T22:49:25.757184","MEAN_MOTION":15.26687035,"ECCENTRICITY":0.0002356,"INCLINATION":98.0867,"RA_OF_ASC_NODE":53.7398,"ARG_OF_PERICENTER":315.8087,"MEAN_ANOMALY":44.2961,"EPHEMERIS_TYPE":0,"CLASSIFICATION_TYPE":"U","NORAD_CAT_ID":40024,"ELEMENT_SET_NO":999,"REV_AT_EPOCH":63331,"BSTAR":0.00059503641,"MEAN_MOTION_DOT":0.00015556,"MEAN_MOTION_DDOT":0},{"OBJECT_NAME":"QB50P1","OBJECT_ID":"2014-033R","EPOCH":"2026-02-01T22:30:48.733056","MEAN_MOTION":15.15687234,"ECCENTRICITY":0.0008351,"INCLINATION":98.0986,"RA_OF_ASC_NODE":34.8353,"ARG_OF_PERICENTER":341.2851,"MEAN_ANOMALY":18.8072,"EPHEMERIS_TYPE":0,"CLASSIFICATION_TYPE":"U","NORAD_CAT_ID":40025,"ELEMENT_SET_NO":999,"REV_AT_EPOCH":63252,"BSTAR":0.00052704544,"MEAN_MOTION_DOT":9.973e-5,"MEAN_MOTION_DDOT":0},{"OBJECT_NAME":"QB50P2","OBJECT_ID":"2014-033Y","EPOCH":"2026-02-01T21:23:26.827008","MEAN_MOTION":15.1293174,"ECCENTRICITY":0.00056185,"INCLINATION":98.0689,"RA_OF_ASC_NODE":21.6157,"ARG_OF_PERICENTER":280.0996,"MEAN_ANOMALY":79.9599,"EPHEMERIS_TYPE":0,"CLASSIFICATION_TYPE":"U","NORAD_CAT_ID":40032,"ELEMENT_SET_NO":999,"REV_AT_EPOCH":63219,"BSTAR":0.00049635459,"MEAN_MOTION_DOT":8.68e-5,"MEAN_MOTION_DDOT":0},{"OBJECT_NAME":"PERSEUS-M2","OBJECT_ID":"2014-033AD","EPOCH":"2026-02-01T21:17:58.642656","MEAN_MOTION":14.94975202,"ECCENTRICITY":0.00130762,"INCLINATION":97.9823,"RA_OF_ASC_NODE":340.8541,"ARG_OF_PERICENTER":34.6004,"MEAN_ANOMALY":325.6065,"EPHEMERIS_TYPE":0,"CLASSIFICATION_TYPE":"U","NORAD_CAT_ID":40037,"ELEMENT_SET_NO":999,"REV_AT_EPOCH":63056,"BSTAR":0.00021033788,"MEAN_MOTION_DOT":2.241e-5,"MEAN_MOTION_DDOT":0},{"OBJECT_NAME":"PERSEUS-M1","OBJECT_ID":"2014-033AF","EPOCH":"2026-02-01T19:15:58.197024","MEAN_MOTION":14.95052717,"ECCENTRICITY":0.00126925,"INCLINATION":97.952,"RA_OF_ASC_NODE":334.8815,"ARG_OF_PERICENTER":33.4112,"MEAN_ANOMALY":326.7906,"EPHEMERIS_TYPE":0,"CLASSIFICATION_TYPE":"U","NORAD_CAT_ID":40039,"ELEMENT_SET_NO":999,"REV_AT_EPOCH":63040,"BSTAR":0.00017610451,"MEAN_MOTION_DOT":1.87e-5,"MEAN_MOTION_DDOT":0},{"OBJECT_NAME":"POLYITAN-1","OBJECT_ID":"2014-033AJ","EPOCH":"2026-02-01T22:27:48.144096","MEAN_MOTION":15.27961832,"ECCENTRICITY":0.00058656,"INCLINATION":98.1055,"RA_OF_ASC_NODE":46.8624,"ARG_OF_PERICENTER":257.3819,"MEAN_ANOMALY":102.6762,"EPHEMERIS_TYPE":0,"CLASSIFICATION_TYPE":"U","NORAD_CAT_ID":40042,"ELEMENT_SET_NO":999,"REV_AT_EPOCH":63290,"BSTAR":0.00063400198,"MEAN_MOTION_DOT":0.00017245,"MEAN_MOTION_DDOT":0}]
