ZACUBE-1 (TSHEPISOSAT)  
1 39417U 13066B   26032.84364745  .00007148  00000+0  57179-3 0  9995
2 39417  97.8153 354.5016 0041312 343.6684  16.3205 14.99841331660437
WNISAT-1                
1 39423U 13066H   26032.93924779  .00000946  00000+0  18206-3 0  9998
2 39423  97.6979 191.8711 0162642 298.1503  60.3346 14.57751470647029
TRITON-1                
1 39427U 13066M   26032.99962788  .00004402  00000+0  53734-3 0  9996
2 39427  97.8324 305.9134 0090297 315.6707  43.7299 14.80945160654075
GOMX-1                  
1 39430U 13066Q   26032.92874706  .00002989  00000+0  45611-3 0  9998
2 39430  97.6580 241.8616 0130226 151.3136 209.5316 14.68932309650055
CUBEBUG-2 (LO-74)       
1 39440U 13066AA  26032.83512701  .00003433  00000+0  32837-3 0  9994
2 39440  97.8769 341.4780 0060452 115.1934 245.5570 14.92519958656790
NEE-02 KRYSAOR          
1 39441U 13066AB  26032.82561904  .00002039  00000+0  23065-3 0  9997
2 39441  97.8785 333.1649 0067632 152.2442 208.2410 14.85939088656098
FUNCUBE-1 (AO-73)       
1 39444U 13066AE  26032.86505611  .00010504  00000+0  69196-3 0  9998
2 39444  97.8123   1.8306 0036573 305.7942  53.9887 15.07153424659268
UWE-3                   
1 39446U 13066AG  26032.81049592  .00005530  00000+0  48904-3 0  9993
2 39446  97.8538 348.2312 0051818  52.2263 308.3635 14.95692020657334
BRITE-CA1 (TORONTO)     
1 40020U 14033L   26032.95179592  .00000953  00000+0  15151-3 0  9999
2 40020  97.9522 164.5720 0078773 350.8439   9.1327 14.72364852622319
DUCHIFAT-1              
1 40021U 14033M   26032.62112611  .00040775  00000+0  84518-3 0  9992
2 40021  98.0704  74.9143 0005628 192.2939 167.8172 15.45617220634694
NANOSATC-BR1            
1 40024U 14033Q   26032.95099256  .00015556  00000+0  59504-3 0  9996
2 40024  98.0867  53.7398 0002356 315.8087  44.2961 15.26687035633318
QB50P1                  
1 40025U 14033R   26032.93806404  .00009973  00000+0  52705-3 0  9998
2 40025  98.0986  34.8353 0008351 341.2851  18.8072 15.15687234632526
QB50P2                  
1 40032U 14033Y   26032.89128272  .00008680  00000+0  49635-3 0  9993
2 40032  98.0689  21.6157 0005618 280.0996  79.9599 15.12931740632199
PERSEUS-M2              
1 40037U 14033AD  26032.88748429  .00002241  00000+0  21034-3 0  9999
2 40037  97.9823 340.8541 0013076  34.6004 325.6065 14.94975202630563
PERSEUS-M1              
1 40039U 14033AF  26032.80275691  .00001870  00000+0  17610-3 0  9991
2 40039  97.9520 334.8815 0012692  33.4112 326.7906 14.95052717630403
POLYITAN-1              
1 40042U 14033AJ  26032.93597389  .00017245  00000+0  63400-3 0  9991
2 40042  98.1055  46.8624 0005865 257.3819 102.6762 15.27961832632907
